STARLINK-32827          
1 63043U 25034Q   26068.83993514  .00019052  00000+0  65381-3 0  9996
2 63043  53.1572 270.6511 0000808  87.7595 272.3499 15.30196539 58922
2025-313BE              
1 67482U 25313BE  26068.69721505  .00077178  00000+0  26504-2 0  9996
2 67482  97.3989 145.3568 0007208 335.3714  24.7181 15.29801687  7972
